[{"OBJECT_NAME":"ONEWEB-0380","OBJECT_ID":"2021-090AD","EPOCH":"2025-12-15T06:05:10.528512","MEAN_MOTION":13.19725344,"ECCENTRICITY":0.00016897,"INCLINATION":87.9201,"RA_OF_ASC_NODE":341.573,"ARG_OF_PERICENTER":94.1359,"MEAN_ANOMALY":265.9967,"EPHEMERIS_TYPE":0,"CLASSIFICATION_TYPE":"U","NORAD_CAT_ID":49306,"ELEMENT_SET_NO":999,"REV_AT_EPOCH":20216,"BSTAR":0.00021025392,"MEAN_MOTION_DOT":9.7e-7,"MEAN_MOTION_DDOT":0},{"OBJECT_NAME":"ONEWEB-0381","OBJECT_ID":"2021-090AE","EPOCH":"2025-12-15T07:07:05.675808","MEAN_MOTION":13.20771044,"ECCENTRICITY":0.000182,"INCLINATION":87.9204,"RA_OF_ASC_NODE":311.112,"ARG_OF_PERICENTER":90.0214,"MEAN_ANOMALY":270.1128,"EPHEMERIS_TYPE":0,"CLASSIFICATION_TYPE":"U","NORAD_CAT_ID":49307,"ELEMENT_SET_NO":999,"REV_AT_EPOCH":20555,"BSTAR":0.00030319907,"MEAN_MOTION_DOT":1.36e-6,"MEAN_MOTION_DDOT":0},{"OBJECT_NAME":"ONEWEB-0382","OBJECT_ID":"2021-090AF","EPOCH":"2025-12-15T08:37:58.887840","MEAN_MOTION":13.20769979,"ECCENTRICITY":0.00020187,"INCLINATION":87.9206,"RA_OF_ASC_NODE":311.0955,"ARG_OF_PERICENTER":90.7172,"MEAN_ANOMALY":269.4193,"EPHEMERIS_TYPE":0,"CLASSIFICATION_TYPE":"U","NORAD_CAT_ID":49308,"ELEMENT_SET_NO":999,"REV_AT_EPOCH":20555,"BSTAR":0.00017489348,"MEAN_MOTION_DOT":8.4e-7,"MEAN_MOTION_DDOT":0},{"OBJECT_NAME":"ONEWEB-0383","OBJECT_ID":"2021-090AG","EPOCH":"2025-12-15T08:37:22.998144","MEAN_MOTION":13.14504668,"ECCENTRICITY":0.00019477,"INCLINATION":87.8998,"RA_OF_ASC_NODE":326.3151,"ARG_OF_PERICENTER":87.8106,"MEAN_ANOMALY":272.3247,"EPHEMERIS_TYPE":0,"CLASSIFICATION_TYPE":"U","NORAD_CAT_ID":49309,"ELEMENT_SET_NO":999,"REV_AT_EPOCH":20344,"BSTAR":-0.00038866476,"MEAN_MOTION_DOT":-1.31e-6,"MEAN_MOTION_DDOT":0},{"OBJECT_NAME":"ONEWEB-0384","OBJECT_ID":"2021-090AH","EPOCH":"2025-12-15T08:28:25.845024","MEAN_MOTION":13.207991,"ECCENTRICITY":0.00021976,"INCLINATION":87.9215,"RA_OF_ASC_NODE":311.1328,"ARG_OF_PERICENTER":93.3575,"MEAN_ANOMALY":266.781,"EPHEMERIS_TYPE":0,"CLASSIFICATION_TYPE":"U","NORAD_CAT_ID":49310,"ELEMENT_SET_NO":999,"REV_AT_EPOCH":20556,"BSTAR":0.00024499079,"MEAN_MOTION_DOT":1.13e-6,"MEAN_MOTION_DDOT":0},{"OBJECT_NAME":"ONEWEB-0385","OBJECT_ID":"2021-090AJ","EPOCH":"2025-12-15T08:26:37.969440","MEAN_MOTION":13.20770135,"ECCENTRICITY":0.00018649,"INCLINATION":87.9202,"RA_OF_ASC_NODE":311.1017,"ARG_OF_PERICENTER":86.2389,"MEAN_ANOMALY":273.8957,"EPHEMERIS_TYPE":0,"CLASSIFICATION_TYPE":"U","NORAD_CAT_ID":49311,"ELEMENT_SET_NO":999,"REV_AT_EPOCH":20553,"BSTAR":0.00027987561,"MEAN_MOTION_DOT":1.27e-6,"MEAN_MOTION_DDOT":0},{"OBJECT_NAME":"ONEWEB-0386","OBJECT_ID":"2021-090AK","EPOCH":"2025-12-15T07:02:32.895456","MEAN_MOTION":13.20770588,"ECCENTRICITY":0.00020124,"INCLINATION":87.9205,"RA_OF_ASC_NODE":311.0975,"ARG_OF_PERICENTER":88.322,"MEAN_ANOMALY":271.8144,"EPHEMERIS_TYPE":0,"CLASSIFICATION_TYPE":"U","NORAD_CAT_ID":49312,"ELEMENT_SET_NO":999,"REV_AT_EPOCH":20554,"BSTAR":0.00017691704,"MEAN_MOTION_DOT":8.5e-7,"MEAN_MOTION_DDOT":0},{"OBJECT_NAME":"ONEWEB-0387","OBJECT_ID":"2021-090AL","EPOCH":"2025-12-15T08:28:54.659424","MEAN_MOTION":13.20770199,"ECCENTRICITY":0.00016501,"INCLINATION":87.92,"RA_OF_ASC_NODE":311.1308,"ARG_OF_PERICENTER":90.6585,"MEAN_ANOMALY":269.4737,"EPHEMERIS_TYPE":0,"CLASSIFICATION_TYPE":"U","NORAD_CAT_ID":49313,"ELEMENT_SET_NO":999,"REV_AT_EPOCH":20555,"BSTAR":0.00010099367,"MEAN_MOTION_DOT":5.4e-7,"MEAN_MOTION_DDOT":0},{"OBJECT_NAME":"ONEWEB-0388","OBJECT_ID":"2021-090AM","EPOCH":"2025-12-15T05:58:20.890560","MEAN_MOTION":13.19724463,"ECCENTRICITY":0.00018969,"INCLINATION":87.9196,"RA_OF_ASC_NODE":341.5746,"ARG_OF_PERICENTER":91.4478,"MEAN_ANOMALY":268.6872,"EPHEMERIS_TYPE":0,"CLASSIFICATION_TYPE":"U","NORAD_CAT_ID":49314,"ELEMENT_SET_NO":999,"REV_AT_EPOCH":20215,"BSTAR":0.00012640192,"MEAN_MOTION_DOT":6.4e-7,"MEAN_MOTION_DDOT":0},{"OBJECT_NAME":"ONEWEB-0389","OBJECT_ID":"2021-132A","EPOCH":"2025-12-15T04:55:44.733504","MEAN_MOTION":13.17648587,"ECCENTRICITY":0.00018476,"INCLINATION":87.9112,"RA_OF_ASC_NODE":42.4542,"ARG_OF_PERICENTER":112.3213,"MEAN_ANOMALY":247.8114,"EPHEMERIS_TYPE":0,"CLASSIFICATION_TYPE":"U","NORAD_CAT_ID":50469,"ELEMENT_SET_NO":999,"REV_AT_EPOCH":19385,"BSTAR":0.00011331774,"MEAN_MOTION_DOT":5.7e-7,"MEAN_MOTION_DDOT":0},{"OBJECT_NAME":"ONEWEB-0390","OBJECT_ID":"2021-132B","EPOCH":"2025-12-15T04:58:10.384896","MEAN_MOTION":13.17649541,"ECCENTRICITY":0.00015014,"INCLINATION":87.9109,"RA_OF_ASC_NODE":42.4558,"ARG_OF_PERICENTER":97.8587,"MEAN_ANOMALY":262.2715,"EPHEMERIS_TYPE":0,"CLASSIFICATION_TYPE":"U","NORAD_CAT_ID":50470,"ELEMENT_SET_NO":999,"REV_AT_EPOCH":19385,"BSTAR":2.9604698e-5,"MEAN_MOTION_DOT":2.4e-7,"MEAN_MOTION_DDOT":0},{"OBJECT_NAME":"ONEWEB-0391","OBJECT_ID":"2021-132C","EPOCH":"2025-12-15T05:00:36.297216","MEAN_MOTION":13.17647761,"ECCENTRICITY":0.00016253,"INCLINATION":87.9107,"RA_OF_ASC_NODE":42.4651,"ARG_OF_PERICENTER":129.6405,"MEAN_ANOMALY":230.4871,"EPHEMERIS_TYPE":0,"CLASSIFICATION_TYPE":"U","NORAD_CAT_ID":50471,"ELEMENT_SET_NO":999,"REV_AT_EPOCH":19385,"BSTAR":8.5225135e-5,"MEAN_MOTION_DOT":4.6e-7,"MEAN_MOTION_DDOT":0},{"OBJECT_NAME":"ONEWEB-0392","OBJECT_ID":"2021-132D","EPOCH":"2025-12-15T09:23:02.423328","MEAN_MOTION":13.17649701,"ECCENTRICITY":0.00017839,"INCLINATION":87.9119,"RA_OF_ASC_NODE":42.3813,"ARG_OF_PERICENTER":113.0869,"MEAN_ANOMALY":247.045,"EPHEMERIS_TYPE":0,"CLASSIFICATION_TYPE":"U","NORAD_CAT_ID":50472,"ELEMENT_SET_NO":999,"REV_AT_EPOCH":19391,"BSTAR":-3.0378631e-5,"MEAN_MOTION_DOT":1.0e-8,"MEAN_MOTION_DDOT":0},{"OBJECT_NAME":"ONEWEB-0393","OBJECT_ID":"2021-132E","EPOCH":"2025-12-15T05:05:39.429888","MEAN_MOTION":13.1764891,"ECCENTRICITY":0.00017549,"INCLINATION":87.9119,"RA_OF_ASC_NODE":42.4389,"ARG_OF_PERICENTER":106.9548,"MEAN_ANOMALY":253.1776,"EPHEMERIS_TYPE":0,"CLASSIFICATION_TYPE":"U","NORAD_CAT_ID":50473,"ELEMENT_SET_NO":999,"REV_AT_EPOCH":19388,"BSTAR":0.00020976125,"MEAN_MOTION_DOT":9.4e-7,"MEAN_MOTION_DDOT":0},{"OBJECT_NAME":"ONEWEB-0394","OBJECT_ID":"2021-132F","EPOCH":"2025-12-15T07:47:56.508576","MEAN_MOTION":13.18687001,"ECCENTRICITY":0.00018471,"INCLINATION":87.9182,"RA_OF_ASC_NODE":11.9543,"ARG_OF_PERICENTER":99.0174,"MEAN_ANOMALY":261.1167,"EPHEMERIS_TYPE":0,"CLASSIFICATION_TYPE":"U","NORAD_CAT_ID":50474,"ELEMENT_SET_NO":999,"REV_AT_EPOCH":19736,"BSTAR":0.00020924342,"MEAN_MOTION_DOT":9.5e-7,"MEAN_MOTION_DDOT":0},{"OBJECT_NAME":"ONEWEB-0395","OBJECT_ID":"2021-132G","EPOCH":"2025-12-15T05:10:19.905024","MEAN_MOTION":13.11413954,"ECCENTRICITY":0.00015098,"INCLINATION":87.8853,"RA_OF_ASC_NODE":57.7112,"ARG_OF_PERICENTER":106.0038,"MEAN_ANOMALY":254.1257,"EPHEMERIS_TYPE":0,"CLASSIFICATION_TYPE":"U","NORAD_CAT_ID":50475,"ELEMENT_SET_NO":999,"REV_AT_EPOCH":19160,"BSTAR":-0.0012448594,"MEAN_MOTION_DOT":-4.28e-6,"MEAN_MOTION_DDOT":0},{"OBJECT_NAME":"ONEWEB-0396","OBJECT_ID":"2021-132H","EPOCH":"2025-12-15T07:38:26.881152","MEAN_MOTION":13.18686696,"ECCENTRICITY":0.00018113,"INCLINATION":87.918,"RA_OF_ASC_NODE":11.9678,"ARG_OF_PERICENTER":97.0157,"MEAN_ANOMALY":263.1181,"EPHEMERIS_TYPE":0,"CLASSIFICATION_TYPE":"U","NORAD_CAT_ID":50476,"ELEMENT_SET_NO":999,"REV_AT_EPOCH":19740,"BSTAR":0.00014348578,"MEAN_MOTION_DOT":6.9e-7,"MEAN_MOTION_DDOT":0},{"OBJECT_NAME":"ONEWEB-0397","OBJECT_ID":"2021-132J","EPOCH":"2025-12-15T07:59:48.852384","MEAN_MOTION":13.18687092,"ECCENTRICITY":0.00019593,"INCLINATION":87.9182,"RA_OF_ASC_NODE":11.9652,"ARG_OF_PERICENTER":98.1175,"MEAN_ANOMALY":262.018,"EPHEMERIS_TYPE":0,"CLASSIFICATION_TYPE":"U","NORAD_CAT_ID":50477,"ELEMENT_SET_NO":999,"REV_AT_EPOCH":19738,"BSTAR":0.00017228112,"MEAN_MOTION_DOT":8.1e-7,"MEAN_MOTION_DDOT":0},{"OBJECT_NAME":"ONEWEB-0398","OBJECT_ID":"2021-132K","EPOCH":"2025-12-15T04:23:59.225568","MEAN_MOTION":13.11415231,"ECCENTRICITY":0.00012984,"INCLINATION":87.8865,"RA_OF_ASC_NODE":57.6905,"ARG_OF_PERICENTER":100.6308,"MEAN_ANOMALY":259.4967,"EPHEMERIS_TYPE":0,"CLASSIFICATION_TYPE":"U","NORAD_CAT_ID":50478,"ELEMENT_SET_NO":999,"REV_AT_EPOCH":19149,"BSTAR":0.001360881,"MEAN_MOTION_DOT":4.95e-6,"MEAN_MOTION_DDOT":0},{"OBJECT_NAME":"ONEWEB-0399","OBJECT_ID":"2021-132L","EPOCH":"2025-12-15T04:04:25.284576","MEAN_MOTION":13.11419609,"ECCENTRICITY":0.00019802,"INCLINATION":87.8856,"RA_OF_ASC_NODE":57.707,"ARG_OF_PERICENTER":117.6423,"MEAN_ANOMALY":242.4906,"EPHEMERIS_TYPE":0,"CLASSIFICATION_TYPE":"U","NORAD_CAT_ID":50479,"ELEMENT_SET_NO":999,"REV_AT_EPOCH":19148,"BSTAR":1.860225e-5,"MEAN_MOTION_DOT":1.9e-7,"MEAN_MOTION_DDOT":0},{"OBJECT_NAME":"ONEWEB-0400","OBJECT_ID":"2021-132M","EPOCH":"2025-12-15T02:01:09.138720","MEAN_MOTION":13.18686716,"ECCENTRICITY":0.00015909,"INCLINATION":87.918,"RA_OF_ASC_NODE":12.0045,"ARG_OF_PERICENTER":91.4859,"MEAN_ANOMALY":268.6455,"EPHEMERIS_TYPE":0,"CLASSIFICATION_TYPE":"U","NORAD_CAT_ID":50480,"ELEMENT_SET_NO":999,"REV_AT_EPOCH":19734,"BSTAR":8.4085737e-5,"MEAN_MOTION_DOT":4.6e-7,"MEAN_MOTION_DDOT":0},{"OBJECT_NAME":"ONEWEB-0401","OBJECT_ID":"2021-132N","EPOCH":"2025-12-15T08:33:04.942944","MEAN_MOTION":13.18685171,"ECCENTRICITY":0.00019942,"INCLINATION":87.9178,"RA_OF_ASC_NODE":11.947,"ARG_OF_PERICENTER":93.0842,"MEAN_ANOMALY":267.0519,"EPHEMERIS_TYPE":0,"CLASSIFICATION_TYPE":"U","NORAD_CAT_ID":50481,"ELEMENT_SET_NO":999,"REV_AT_EPOCH":19738,"BSTAR":7.3711912e-5,"MEAN_MOTION_DOT":4.2e-7,"MEAN_MOTION_DDOT":0},{"OBJECT_NAME":"ONEWEB-0402","OBJECT_ID":"2021-132P","EPOCH":"2025-12-15T07:40:49.571616","MEAN_MOTION":13.18686089,"ECCENTRICITY":0.00023848,"INCLINATION":87.9178,"RA_OF_ASC_NODE":11.9467,"ARG_OF_PERICENTER":90.65,"MEAN_ANOMALY":269.4905,"EPHEMERIS_TYPE":0,"CLASSIFICATION_TYPE":"U","NORAD_CAT_ID":50482,"ELEMENT_SET_NO":999,"REV_AT_EPOCH":19740,"BSTAR":6.4125797e-5,"MEAN_MOTION_DOT":3.8e-7,"MEAN_MOTION_DDOT":0}]
